GLOBALSTAR M024 [-]     
1 25883U 99043A   24112.73079191 -.00000087  00000+0 -79465-3 0  9998
2 25883  52.0022 251.5651 0002212 130.5992 337.9387 11.10161259 68056
GLOBALSTAR M027 [-]     
1 25884U 99043B   24112.79801809 -.00000007  00000+0  21282-2 0  9998
2 25884  52.0223 317.4615 0021730  32.6378 327.5754 11.04368281 94686
GLOBALSTAR M053 [-]     
1 25886U 99043D   24112.33529061 -.00000056  00000+0  36521-3 0  9994
2 25886  51.9979  80.2693 0003462  81.8424  67.3503 11.27654657 71850
GLOBALSTAR M058 [-]     
1 25907U 99049A   24112.43715161 -.00000110  00000+0 -34522-3 0  9994
2 25907  51.9918 155.3367 0002530 186.3056 173.7747 11.93175898491199
GLOBALSTAR M050 [-]     
1 25908U 99049B   24112.62769406 -.00000005  00000+0  94144-3 0  9995
2 25908  51.9976 193.9979 0008844 269.1502 239.5838 12.07431921101997
